start=new Date('2022-07-24T00:00:00.000Z').valueOf();
sats=[{"CLASSIFICATION_TYPE":"U","DECAY_DATE":null,"OBJECT_NAME":"STARLINK-1973","LAUNCH_DATE":"2021-02-16","ELEMENT_SET_NO":"999","OBJECT_TYPE":"PAYLOAD","SEMIMAJOR_AXIS":"6925.312","COUNTRY_CODE":"US","GP_ID":"208735324","ARG_OF_PERICENTER":"74.3975","RCS_SIZE":"LARGE","NORAD_CAT_ID":"47628","OBJECT_ID":"2021-012J","INCLINATION":"53.0532","TLE_LINE2":"2 47628  53.0532 259.0003 0001631  74.3975 285.7194 15.06412082 80308","MEAN_ELEMENT_THEORY":"SGP4","PERIOD":"95.591","MEAN_ANOMALY":"285.7194","TLE_LINE1":"1 47628U 21012J   22204.86087560  .00006637  00000-0  46391-3 0  9991","RA_OF_ASC_NODE":"259.0003","MEAN_MOTION_DDOT":"0.0000000000000","PERIAPSIS":"546.047","CENTER_NAME":"EARTH","EPHEMERIS_TYPE":"0","ECCENTRICITY":"0.00016310","MEAN_MOTION_DOT":"0.00006637","SITE":"AFETR","REV_AT_EPOCH":"8030","EPOCH":"2022-07-23T20:39:39.651840","TIME_SYSTEM":"UTC","BSTAR":"0.00046391000000","MEAN_MOTION":"15.06412082","REF_FRAME":"TEME","FILE":"3520602","APOAPSIS":"548.306"},{"LAUNCH_DATE":"2021-02-16","OBJECT_TYPE":"PAYLOAD","ELEMENT_SET_NO":"999","CLASSIFICATION_TYPE":"U","DECAY_DATE":null,"OBJECT_NAME":"STARLINK-1974","NORAD_CAT_ID":"47629","RCS_SIZE":"LARGE","ARG_OF_PERICENTER":"66.8643","INCLINATION":"53.0559","OBJECT_ID":"2021-012K","SEMIMAJOR_AXIS":"6925.383","GP_ID":"208735574","COUNTRY_CODE":"US","MEAN_MOTION_DOT":"0.00000401","ECCENTRICITY":"0.00014590","PERIOD":"95.593","MEAN_ELEMENT_THEORY":"SGP4","TLE_LINE2":"2 47629  53.0559 139.0940 0001459  66.8643 293.2499 15.06388747 81966","RA_OF_ASC_NODE":"139.0940","TLE_LINE1":"1 47629U 21012K   22204.84336674  .00000401  00000-0  45824-4 0  9997","MEAN_ANOMALY":"293.2499","CENTER_NAME":"EARTH","MEAN_MOTION_DDOT":"0.0000000000000","PERIAPSIS":"546.238","EPHEMERIS_TYPE":"0","REF_FRAME":"TEME","APOAPSIS":"548.258","FILE":"3520602","REV_AT_EPOCH":"8196","SITE":"AFETR","EPOCH":"2022-07-23T20:14:26.886336","BSTAR":"0.00004582400000","TIME_SYSTEM":"UTC","MEAN_MOTION":"15.06388747"},{"COUNTRY_CODE":"US","GP_ID":"208736825","SEMIMAJOR_AXIS":"6925.366","OBJECT_ID":"2021-012L","INCLINATION":"53.0548","ARG_OF_PERICENTER":"51.0488","RCS_SIZE":"LARGE","NORAD_CAT_ID":"47630","OBJECT_NAME":"STARLINK-1983","DECAY_DATE":null,"CLASSIFICATION_TYPE":"U","ELEMENT_SET_NO":"999","OBJECT_TYPE":"PAYLOAD","LAUNCH_DATE":"2021-02-16","MEAN_MOTION":"15.06394162","BSTAR":"0.00017529000000","TIME_SYSTEM":"UTC","EPOCH":"2022-07-23T19:13:25.656960","REV_AT_EPOCH":"8055","SITE":"AFETR","FILE":"3520602","APOAPSIS":"548.394","REF_FRAME":"TEME","EPHEMERIS_TYPE":"0","PERIAPSIS":"546.069","MEAN_MOTION_DDOT":"0.0000000000000","CENTER_NAME":"EARTH","MEAN_ANOMALY":"309.0650","TLE_LINE1":"1 47630U 21012L   22204.80099140  .00002330  00000-0  17529-3 0  9992","RA_OF_ASC_NODE":"239.3680","TLE_LINE2":"2 47630  53.0548 239.3680 0001679  51.0488 309.0650 15.06394162 80555","MEAN_ELEMENT_THEORY":"SGP4","PERIOD":"95.593","ECCENTRICITY":"0.00016790","MEAN_MOTION_DOT":"0.00002330"},{"EPHEMERIS_TYPE":"0","CENTER_NAME":"EARTH","PERIAPSIS":"545.987","MEAN_MOTION_DDOT":"0.0000000000000","TLE_LINE1":"1 47632U 21012N   22204.59500303 -.00000292  00000-0 -70473-6 0  9995","RA_OF_ASC_NODE":"165.2092","MEAN_ANOMALY":"296.5190","MEAN_ELEMENT_THEORY":"SGP4","PERIOD":"95.593","TLE_LINE2":"2 47632  53.0532 165.2092 0001808  63.5985 296.5190 15.06391624 81570","MEAN_MOTION_DOT":"-0.00000292","ECCENTRICITY":"0.00018080","MEAN_MOTION":"15.06391624","BSTAR":"-0.00000070473000","TIME_SYSTEM":"UTC","EPOCH":"2022-07-23T14:16:48.261792","REV_AT_EPOCH":"8157","SITE":"AFETR","APOAPSIS":"548.491","FILE":"3520602","REF_FRAME":"TEME","OBJECT_NAME":"STARLINK-1992","DECAY_DATE":null,"CLASSIFICATION_TYPE":"U","OBJECT_TYPE":"PAYLOAD","ELEMENT_SET_NO":"999","LAUNCH_DATE":"2021-02-16","GP_ID":"208736576","COUNTRY_CODE":"US","SEMIMAJOR_AXIS":"6925.374","INCLINATION":"53.0532","OBJECT_ID":"2021-012N","RCS_SIZE":"LARGE","NORAD_CAT_ID":"47632","ARG_OF_PERICENTER":"63.5985"},{"APOAPSIS":"548.220","FILE":"3520602","REF_FRAME":"TEME","EPOCH":"2022-07-23T21:06:10.490112","REV_AT_EPOCH":"8032","SITE":"AFETR","MEAN_MOTION":"15.06392557","BSTAR":"0.00005500100000","TIME_SYSTEM":"UTC","ECCENTRICITY":"0.00014200","MEAN_MOTION_DOT":"0.00000538","MEAN_ANOMALY":"297.4153","TLE_LINE1":"1 47633U 21012P   22204.87928808  .00000538  00000-0  55001-4 0  9990","RA_OF_ASC_NODE":"258.9509","TLE_LINE2":"2 47633  53.0543 258.9509 0001420  62.6981 297.4153 15.06392557 80329","PERIOD":"95.593","MEAN_ELEMENT_THEORY":"SGP4","EPHEMERIS_TYPE":"0","MEAN_MOTION_DDOT":"0.0000000000000","PERIAPSIS":"546.253","CENTER_NAME":"EARTH","ARG_OF_PERICENTER":"62.6981","NORAD_CAT_ID":"47633","RCS_SIZE":"LARGE","OBJECT_ID":"2021-012P","INCLINATION":"53.0543","COUNTRY_CODE":"US","GP_ID":"208735824","SEMIMAJOR_AXIS":"6925.371","ELEMENT_SET_NO":"999","OBJECT_TYPE":"PAYLOAD","LAUNCH_DATE":"2021-02-16","CLASSIFICATION_TYPE":"U","OBJECT_NAME":"STARLINK-2009","DECAY_DATE":null},{"GP_ID":"208736074","COUNTRY_CODE":"US","SEMIMAJOR_AXIS":"6925.351","INCLINATION":"53.0535","OBJECT_ID":"2021-012Q","NORAD_CAT_ID":"47634","RCS_SIZE":"LARGE","ARG_OF_PERICENTER":"74.4990","OBJECT_NAME":"STARLINK-2010","DECAY_DATE":null,"CLASSIFICATION_TYPE":"U","OBJECT_TYPE":"PAYLOAD","ELEMENT_SET_NO":"999","LAUNCH_DATE":"2021-02-16","MEAN_MOTION":"15.06399288","TIME_SYSTEM":"UTC","BSTAR":"0.00049671000000","EPOCH":"2022-07-23T20:30:24.578496","REV_AT_EPOCH":"8029","SITE":"AFETR","FILE":"3520602","APOAPSIS":"548.219","REF_FRAME":"TEME","EPHEMERIS_TYPE":"0","CENTER_NAME":"EARTH","PERIAPSIS":"546.212","MEAN_MOTION_DDOT":"0.0000000000000","RA_OF_ASC_NODE":"259.0370","TLE_LINE1":"1 47634U 21012Q   22204.85445114  .00007125  00000-0  49671-3 0  9997","MEAN_ANOMALY":"285.6159","PERIOD":"95.592","MEAN_ELEMENT_THEORY":"SGP4","TLE_LINE2":"2 47634  53.0535 259.0370 0001449  74.4990 285.6159 15.06399288 80290","MEAN_MOTION_DOT":"0.00007125","ECCENTRICITY":"0.00014490"},{"CLASSIFICATION_TYPE":"U","DECAY_DATE":null,"OBJECT_NAME":"STARLINK-2012","LAUNCH_DATE":"2021-02-16","ELEMENT_SET_NO":"999","OBJECT_TYPE":"PAYLOAD","SEMIMAJOR_AXIS":"6925.347","COUNTRY_CODE":"US","GP_ID":"208736326","ARG_OF_PERICENTER":"65.8753","RCS_SIZE":"LARGE","NORAD_CAT_ID":"47635","OBJECT_ID":"2021-012R","INCLINATION":"53.0582","TLE_LINE2":"2 47635  53.0582 165.1057 0001463  65.8753 294.2388 15.06400529 81594","PERIOD":"95.592","MEAN_ELEMENT_THEORY":"SGP4","MEAN_ANOMALY":"294.2388","RA_OF_ASC_NODE":"165.1057","TLE_LINE1":"1 47635U 21012R   22204.61437109  .00002265  00000-0  17089-3 0  9995","MEAN_MOTION_DDOT":"0.0000000000000","PERIAPSIS":"546.199","CENTER_NAME":"EARTH","EPHEMERIS_TYPE":"0","ECCENTRICITY":"0.00014630","MEAN_MOTION_DOT":"0.00002265","REV_AT_EPOCH":"8159","SITE":"AFETR","EPOCH":"2022-07-23T14:44:41.662176","TIME_SYSTEM":"UTC","BSTAR":"0.00017089000000","MEAN_MOTION":"15.06400529","REF_FRAME":"TEME","APOAPSIS":"548.225","FILE":"3520602"},{"APOAPSIS":"548.285","FILE":"3520602","REF_FRAME":"TEME","EPOCH":"2022-07-23T13:49:38.317152","SITE":"AFETR","REV_AT_EPOCH":"8053","MEAN_MOTION":"15.06398313","BSTAR":"0.00015879000000","TIME_SYSTEM":"UTC","MEAN_MOTION_DOT":"0.00002084","ECCENTRICITY":"0.00015400","TLE_LINE1":"1 47636U 21012S   22204.57613793  .00002084  00000-0  15879-3 0  9990","RA_OF_ASC_NODE":"240.2931","MEAN_ANOMALY":"276.6057","MEAN_ELEMENT_THEORY":"SGP4","PERIOD":"95.592","TLE_LINE2":"2 47636  53.0532 240.2931 0001540  83.5108 276.6057 15.06398313 80530","EPHEMERIS_TYPE":"0","CENTER_NAME":"EARTH","MEAN_MOTION_DDOT":"0.0000000000000","PERIAPSIS":"546.152","RCS_SIZE":"LARGE","NORAD_CAT_ID":"47636","ARG_OF_PERICENTER":"83.5108","INCLINATION":"53.0532","OBJECT_ID":"2021-012S","GP_ID":"208737076","COUNTRY_CODE":"US","SEMIMAJOR_AXIS":"6925.354","OBJECT_TYPE":"PAYLOAD","ELEMENT_SET_NO":"999","LAUNCH_DATE":"2021-02-16","CLASSIFICATION_TYPE":"U","OBJECT_NAME":"STARLINK-2013","DECAY_DATE":null},{"EPHEMERIS_TYPE":"0","CENTER_NAME":"EARTH","MEAN_MOTION_DDOT":"0.0000000000000","PERIAPSIS":"546.088","RA_OF_ASC_NODE":"239.2345","TLE_LINE1":"1 47637U 21012T   22204.81204167  .00000557  00000-0  56327-4 0  9996","MEAN_ANOMALY":"294.6033","PERIOD":"95.593","MEAN_ELEMENT_THEORY":"SGP4","TLE_LINE2":"2 47637  53.0533 239.2345 0001662  65.5130 294.6033 15.06391697 80586","MEAN_MOTION_DOT":"0.00000557","ECCENTRICITY":"0.00016620","MEAN_MOTION":"15.06391697","BSTAR":"0.00005632700000","TIME_SYSTEM":"UTC","EPOCH":"2022-07-23T19:29:20.400288","SITE":"AFETR","REV_AT_EPOCH":"8058","APOAPSIS":"548.390","FILE":"3520602","REF_FRAME":"TEME","OBJECT_NAME":"STARLINK-2014","DECAY_DATE":null,"CLASSIFICATION_TYPE":"U","OBJECT_TYPE":"PAYLOAD","ELEMENT_SET_NO":"999","LAUNCH_DATE":"2021-02-16","GP_ID":"208735325","COUNTRY_CODE":"US","SEMIMAJOR_AXIS":"6925.374","INCLINATION":"53.0533","OBJECT_ID":"2021-012T","NORAD_CAT_ID":"47637","RCS_SIZE":"LARGE","ARG_OF_PERICENTER":"65.5130"},{"EPOCH":"2022-07-23T21:01:33.450240","REV_AT_EPOCH":"8161","SITE":"AFETR","MEAN_MOTION":"15.06389549","TIME_SYSTEM":"UTC","BSTAR":"0.00001519800000","FILE":"3520602","APOAPSIS":"548.281","REF_FRAME":"TEME","MEAN_ANOMALY":"286.8667","RA_OF_ASC_NODE":"163.9308","TLE_LINE1":"1 47638U 21012U   22204.87608160 -.00000055  00000-0  15198-4 0  9999","TLE_LINE2":"2 47638  53.0524 163.9308 0001495  73.2486 286.8667 15.06389549 81617","PERIOD":"95.593","MEAN_ELEMENT_THEORY":"SGP4","EPHEMERIS_TYPE":"0","PERIAPSIS":"546.210","MEAN_MOTION_DDOT":"0.0000000000000","CENTER_NAME":"EARTH","ECCENTRICITY":"0.00014950","MEAN_MOTION_DOT":"-0.00000055","COUNTRY_CODE":"US","GP_ID":"208735575","SEMIMAJOR_AXIS":"6925.381","ARG_OF_PERICENTER":"73.2486","NORAD_CAT_ID":"47638","RCS_SIZE":"LARGE","OBJECT_ID":"2021-012U","INCLINATION":"53.0524","CLASSIFICATION_TYPE":"U","OBJECT_NAME":"STARLINK-2015","DECAY_DATE":null,"ELEMENT_SET_NO":"999","OBJECT_TYPE":"PAYLOAD","LAUNCH_DATE":"2021-02-16"}];
